start=new Date('2022-12-05T00:00:00.000Z').valueOf();
sats=[{"TLE_LINE1":"1 45221U 20012AV  22338.66185524 -.00000465  00000-0 -12288-4 0  9996","DECAY_DATE":null,"OBJECT_NAME":"STARLINK-1189","EPHEMERIS_TYPE":"0","ELEMENT_SET_NO":"999","PERIOD":"95.592","OBJECT_ID":"2020-012AV","NORAD_CAT_ID":"45221","REV_AT_EPOCH":"15494","MEAN_ANOMALY":"307.3986","GP_ID":"219528017","FILE":"3681351","APOAPSIS":"548.439","EPOCH":"2022-12-04T15:53:04.292736","TIME_SYSTEM":"UTC","INCLINATION":"53.0544","MEAN_MOTION":"15.06401882","LAUNCH_DATE":"2020-02-17","MEAN_ELEMENT_THEORY":"SGP4","MEAN_MOTION_DDOT":"0.0000000000000","CLASSIFICATION_TYPE":"U","RCS_SIZE":"LARGE","ECCENTRICITY":"0.00017780","OBJECT_TYPE":"PAYLOAD","BSTAR":"-0.00001228800000","RA_OF_ASC_NODE":"313.3569","ARG_OF_PERICENTER":"52.7165","PERIAPSIS":"545.976","COUNTRY_CODE":"US","SITE":"AFETR","TLE_LINE2":"2 45221  53.0544 313.3569 0001778  52.7165 307.3986 15.06401882154940","SEMIMAJOR_AXIS":"6925.343","MEAN_MOTION_DOT":"-0.00000465","CENTER_NAME":"EARTH","REF_FRAME":"TEME"},{"TIME_SYSTEM":"UTC","INCLINATION":"53.0556","APOAPSIS":"548.402","EPOCH":"2022-12-04T16:03:40.826592","MEAN_MOTION":"15.06411091","MEAN_ANOMALY":"301.0625","REV_AT_EPOCH":"15494","FILE":"3681351","GP_ID":"219528077","OBJECT_ID":"2020-012AW","PERIOD":"95.591","ELEMENT_SET_NO":"999","NORAD_CAT_ID":"45222","OBJECT_NAME":"STARLINK-1191","DECAY_DATE":null,"TLE_LINE1":"1 45222U 20012AW  22338.66922253 -.00002535  00000-0 -15131-3 0  9994","EPHEMERIS_TYPE":"0","SEMIMAJOR_AXIS":"6925.315","SITE":"AFETR","TLE_LINE2":"2 45222  53.0556 313.3218 0001765  59.0537 301.0625 15.06411091154948","REF_FRAME":"TEME","CENTER_NAME":"EARTH","MEAN_MOTION_DOT":"-0.00002535","RA_OF_ASC_NODE":"313.3218","BSTAR":"-0.00015131000000","COUNTRY_CODE":"US","PERIAPSIS":"545.957","ARG_OF_PERICENTER":"59.0537","OBJECT_TYPE":"PAYLOAD","ECCENTRICITY":"0.00017650","RCS_SIZE":"LARGE","CLASSIFICATION_TYPE":"U","LAUNCH_DATE":"2020-02-17","MEAN_MOTION_DDOT":"0.0000000000000","MEAN_ELEMENT_THEORY":"SGP4"},{"BSTAR":"0.00005231500000","RA_OF_ASC_NODE":"314.6901","ARG_OF_PERICENTER":"63.4200","PERIAPSIS":"545.904","COUNTRY_CODE":"US","TLE_LINE2":"2 45223  53.0535 314.6901 0001899  63.4200 296.6983 15.06398275155847","SITE":"AFETR","SEMIMAJOR_AXIS":"6925.354","MEAN_MOTION_DOT":"0.00000498","CENTER_NAME":"EARTH","REF_FRAME":"TEME","LAUNCH_DATE":"2020-02-17","MEAN_ELEMENT_THEORY":"SGP4","MEAN_MOTION_DDOT":"0.0000000000000","RCS_SIZE":"LARGE","CLASSIFICATION_TYPE":"U","ECCENTRICITY":"0.00018990","OBJECT_TYPE":"PAYLOAD","REV_AT_EPOCH":"15584","MEAN_ANOMALY":"296.6983","GP_ID":"219517366","FILE":"3681207","APOAPSIS":"548.534","EPOCH":"2022-12-04T08:36:27.921600","TIME_SYSTEM":"UTC","INCLINATION":"53.0535","MEAN_MOTION":"15.06398275","TLE_LINE1":"1 45223U 20012AX  22338.35865650  .00000498  00000-0  52315-4 0  9998","DECAY_DATE":null,"OBJECT_NAME":"STARLINK-1212","EPHEMERIS_TYPE":"0","ELEMENT_SET_NO":"999","PERIOD":"95.592","OBJECT_ID":"2020-012AX","NORAD_CAT_ID":"45223"},{"SEMIMAJOR_AXIS":"6925.338","TLE_LINE2":"2 45225  53.0568 313.4346 0001653  63.8264 296.2895 15.06403588154949","SITE":"AFETR","REF_FRAME":"TEME","CENTER_NAME":"EARTH","MEAN_MOTION_DOT":"0.00001183","RA_OF_ASC_NODE":"313.4346","BSTAR":"0.00009828600000","COUNTRY_CODE":"US","PERIAPSIS":"546.058","ARG_OF_PERICENTER":"63.8264","OBJECT_TYPE":"PAYLOAD","ECCENTRICITY":"0.00016530","CLASSIFICATION_TYPE":"U","RCS_SIZE":"LARGE","LAUNCH_DATE":"2020-02-17","MEAN_MOTION_DDOT":"0.0000000000000","MEAN_ELEMENT_THEORY":"SGP4","TIME_SYSTEM":"UTC","INCLINATION":"53.0568","APOAPSIS":"548.347","EPOCH":"2022-12-04T15:26:31.240896","MEAN_MOTION":"15.06403588","MEAN_ANOMALY":"296.2895","REV_AT_EPOCH":"15494","FILE":"3681357","GP_ID":"219528129","OBJECT_ID":"2020-012AZ","PERIOD":"95.592","ELEMENT_SET_NO":"999","NORAD_CAT_ID":"45225","OBJECT_NAME":"STARLINK-1215","DECAY_DATE":null,"TLE_LINE1":"1 45225U 20012AZ  22338.64341714  .00001183  00000-0  98286-4 0  9991","EPHEMERIS_TYPE":"0"},{"OBJECT_ID":"2020-012BA","ELEMENT_SET_NO":"999","PERIOD":"95.592","NORAD_CAT_ID":"45226","OBJECT_NAME":"STARLINK-1217","TLE_LINE1":"1 45226U 20012BA  22338.65079223  .00000388  00000-0  44952-4 0  9993","DECAY_DATE":null,"EPHEMERIS_TYPE":"0","APOAPSIS":"548.289","EPOCH":"2022-12-04T15:37:08.448672","INCLINATION":"53.0549","TIME_SYSTEM":"UTC","MEAN_MOTION":"15.06400594","REV_AT_EPOCH":"15491","MEAN_ANOMALY":"291.6802","FILE":"3681357","GP_ID":"219528127","OBJECT_TYPE":"PAYLOAD","CLASSIFICATION_TYPE":"U","RCS_SIZE":"LARGE","ECCENTRICITY":"0.00015560","LAUNCH_DATE":"2020-02-17","MEAN_ELEMENT_THEORY":"SGP4","MEAN_MOTION_DDOT":"0.0000000000000","SITE":"AFETR","TLE_LINE2":"2 45226  53.0549 313.4110 0001556  68.4353 291.6802 15.06400594154918","SEMIMAJOR_AXIS":"6925.347","REF_FRAME":"TEME","MEAN_MOTION_DOT":"0.00000388","CENTER_NAME":"EARTH","RA_OF_ASC_NODE":"313.4110","BSTAR":"0.00004495200000","COUNTRY_CODE":"US","ARG_OF_PERICENTER":"68.4353","PERIAPSIS":"546.134"},{"MEAN_MOTION_DDOT":"0.0000000000000","MEAN_ELEMENT_THEORY":"SGP4","LAUNCH_DATE":"2020-02-17","OBJECT_TYPE":"PAYLOAD","ECCENTRICITY":"0.00015810","RCS_SIZE":"LARGE","CLASSIFICATION_TYPE":"U","COUNTRY_CODE":"US","PERIAPSIS":"546.140","ARG_OF_PERICENTER":"57.6863","RA_OF_ASC_NODE":"314.8053","BSTAR":"0.00001745900000","REF_FRAME":"TEME","CENTER_NAME":"EARTH","MEAN_MOTION_DOT":"-0.00000022","SEMIMAJOR_AXIS":"6925.370","TLE_LINE2":"2 45227  53.0560 314.8053 0001581  57.6863 302.4279 15.06392921155753","SITE":"AFETR","EPHEMERIS_TYPE":"0","OBJECT_NAME":"STARLINK-1221","DECAY_DATE":null,"TLE_LINE1":"1 45227U 20012BB  22338.34117290 -.00000022  00000-0  17459-4 0  9995","NORAD_CAT_ID":"45227","OBJECT_ID":"2020-012BB","PERIOD":"95.593","ELEMENT_SET_NO":"999","FILE":"3681207","GP_ID":"219517617","MEAN_ANOMALY":"302.4279","REV_AT_EPOCH":"15575","MEAN_MOTION":"15.06392921","INCLINATION":"53.0560","TIME_SYSTEM":"UTC","APOAPSIS":"548.330","EPOCH":"2022-12-04T08:11:17.338560"},{"RCS_SIZE":"LARGE","CLASSIFICATION_TYPE":"U","ECCENTRICITY":"0.00017780","OBJECT_TYPE":"PAYLOAD","LAUNCH_DATE":"2020-02-17","MEAN_ELEMENT_THEORY":"SGP4","MEAN_MOTION_DDOT":"0.0000000000000","TLE_LINE2":"2 45228  53.0542 314.4860 0001778  48.7997 311.3145 15.06395454155736","SITE":"AFETR","SEMIMAJOR_AXIS":"6925.362","MEAN_MOTION_DOT":"-0.00000182","CENTER_NAME":"EARTH","REF_FRAME":"TEME","BSTAR":"0.00000668270000","RA_OF_ASC_NODE":"314.4860","ARG_OF_PERICENTER":"48.7997","PERIAPSIS":"545.996","COUNTRY_CODE":"US","ELEMENT_SET_NO":"999","PERIOD":"95.592","OBJECT_ID":"2020-012BC","NORAD_CAT_ID":"45228","TLE_LINE1":"1 45228U 20012BC  22338.41120426 -.00000182  00000-0  66827-5 0  9990","DECAY_DATE":null,"OBJECT_NAME":"STARLINK-1222","EPHEMERIS_TYPE":"0","EPOCH":"2022-12-04T09:52:08.048064","APOAPSIS":"548.459","INCLINATION":"53.0542","TIME_SYSTEM":"UTC","MEAN_MOTION":"15.06395454","REV_AT_EPOCH":"15573","MEAN_ANOMALY":"311.3145","GP_ID":"219517867","FILE":"3681207"},{"MEAN_ANOMALY":"307.9586","REV_AT_EPOCH":"15581","FILE":"3681494","GP_ID":"219551754","TIME_SYSTEM":"UTC","INCLINATION":"53.0538","EPOCH":"2022-12-04T21:43:22.860480","APOAPSIS":"548.510","MEAN_MOTION":"15.06393934","OBJECT_NAME":"STARLINK-1226","DECAY_DATE":null,"TLE_LINE1":"1 45229U 20012BD  22338.90512570  .00000368  00000-0  43627-4 0  9997","EPHEMERIS_TYPE":"0","OBJECT_ID":"2020-012BD","PERIOD":"95.593","ELEMENT_SET_NO":"999","NORAD_CAT_ID":"45229","RA_OF_ASC_NODE":"312.2702","BSTAR":"0.00004362700000","COUNTRY_CODE":"US","PERIAPSIS":"545.954","ARG_OF_PERICENTER":"52.1569","SEMIMAJOR_AXIS":"6925.367","TLE_LINE2":"2 45229  53.0538 312.2702 0001845  52.1569 307.9586 15.06393934155812","SITE":"AFETR","REF_FRAME":"TEME","CENTER_NAME":"EARTH","MEAN_MOTION_DOT":"0.00000368","LAUNCH_DATE":"2020-02-17","MEAN_ELEMENT_THEORY":"SGP4","MEAN_MOTION_DDOT":"0.0000000000000","OBJECT_TYPE":"PAYLOAD","ECCENTRICITY":"0.00018450","CLASSIFICATION_TYPE":"U","RCS_SIZE":"LARGE"},{"ARG_OF_PERICENTER":"58.8316","PERIAPSIS":"545.974","COUNTRY_CODE":"US","BSTAR":"-0.00003162600000","RA_OF_ASC_NODE":"313.4743","MEAN_MOTION_DOT":"-0.00000753","CENTER_NAME":"EARTH","REF_FRAME":"TEME","SITE":"AFETR","TLE_LINE2":"2 45230  53.0573 313.4743 0001834  58.8316 301.2853 15.06390143154948","SEMIMAJOR_AXIS":"6925.379","MEAN_MOTION_DDOT":"0.0000000000000","MEAN_ELEMENT_THEORY":"SGP4","LAUNCH_DATE":"2020-02-17","CLASSIFICATION_TYPE":"U","RCS_SIZE":"LARGE","ECCENTRICITY":"0.00018340","OBJECT_TYPE":"PAYLOAD","GP_ID":"219528143","FILE":"3681359","REV_AT_EPOCH":"15494","MEAN_ANOMALY":"301.2853","MEAN_MOTION":"15.06390143","APOAPSIS":"548.514","EPOCH":"2022-12-04T15:15:55.329984","TIME_SYSTEM":"UTC","INCLINATION":"53.0573","EPHEMERIS_TYPE":"0","TLE_LINE1":"1 45230U 20012BE  22338.63605706 -.00000753  00000-0 -31626-4 0  9999","DECAY_DATE":null,"OBJECT_NAME":"STARLINK-1227","NORAD_CAT_ID":"45230","ELEMENT_SET_NO":"999","PERIOD":"95.593","OBJECT_ID":"2020-012BE"},{"BSTAR":"0.00010068000000","RA_OF_ASC_NODE":"314.9103","PERIAPSIS":"546.017","ARG_OF_PERICENTER":"57.0873","COUNTRY_CODE":"US","SEMIMAJOR_AXIS":"6925.355","TLE_LINE2":"2 45232  53.0553 314.9103 0001736  57.0873 303.0283 15.06398034155837","SITE":"AFETR","CENTER_NAME":"EARTH","MEAN_MOTION_DOT":"0.00001218","REF_FRAME":"TEME","LAUNCH_DATE":"2020-02-17","MEAN_MOTION_DDOT":"0.0000000000000","MEAN_ELEMENT_THEORY":"SGP4","ECCENTRICITY":"0.00017360","RCS_SIZE":"LARGE","CLASSIFICATION_TYPE":"U","OBJECT_TYPE":"PAYLOAD","MEAN_ANOMALY":"303.0283","REV_AT_EPOCH":"15583","GP_ID":"219517117","FILE":"3681207","INCLINATION":"53.0553","TIME_SYSTEM":"UTC","APOAPSIS":"548.422","EPOCH":"2022-12-04T07:32:46.572288","MEAN_MOTION":"15.06398034","DECAY_DATE":null,"TLE_LINE1":"1 45232U 20012BG  22338.31442792  .00001218  00000-0  10068-3 0  9991","OBJECT_NAME":"STARLINK-1235","EPHEMERIS_TYPE":"0","PERIOD":"95.592","ELEMENT_SET_NO":"999","OBJECT_ID":"2020-012BG","NORAD_CAT_ID":"45232"}];
